ONEWEB-0198             
1 48216U 21031G   26084.57325200 -.00000133  00000+0 -39399-3 0  9996
2 48216  87.8949 306.4073 0002025  75.9663 284.1692 13.14503141237508
ONEWEB-0189             
1 48217U 21031H   26084.35745919  .00000097  00000+0  22746-3 0  9991
2 48217  87.8960 306.4279 0001992  78.4961 281.6392 13.14504555237218
ONEWEB-0196             
1 48218U 21031J   26084.33523498 -.00000211  00000+0 -60463-3 0  9994
2 48218  87.8959 306.4430 0001765  80.0243 280.1086 13.14504043237212
ONEWEB-0183             
1 48219U 21031K   26084.61434477  .00000142  00000+0  34917-3 0  9990
2 48219  87.8956 306.3873 0001474  82.0629 278.0668 13.14503390237347
ONEWEB-0185             
1 48220U 21031L   26084.56439123 -.00000196  00000+0 -56240-3 0  9993
2 48220  87.8965 306.3831 0001566  70.9569 289.1731 13.14503426237269
ONEWEB-0187             
1 48221U 21031M   26084.31607750 -.00000003  00000+0 -43016-4 0  9995
2 48221  87.8945 306.4631 0001746  75.0430 285.0893 13.14503260237248
ONEWEB-0192             
1 48222U 21031N   26084.59055516  .00000150  00000+0  37140-3 0  9994
2 48222  87.8943 306.3973 0001804  84.3707 275.7629 13.14503996237193
ONEWEB-0219             
1 48223U 21031P   26084.11322340 -.00000106  00000+0 -32109-3 0  9998
2 48223  87.8953 306.4791 0001642  75.7428 284.3884 13.14504664237336
ONEWEB-0202             
1 48224U 21031Q   26084.17032344 -.00000073  00000+0 -23150-3 0  9996
2 48224  87.8961 306.4766 0002393  81.6127 278.5274 13.14502147237325
ONEWEB-0204             
1 48225U 21031R   26084.35663909 -.00000207  00000+0 -59416-3 0  9997
2 48225  87.8961 306.4336 0001388  81.1019 279.0268 13.14502900237244
ONEWEB-0205             
1 48226U 21031S   26084.33206475 -.00000262  00000+0 -74034-3 0  9991
2 48226  87.8956 306.4305 0001662  77.8896 282.2420 13.14504117237254
ONEWEB-0206             
1 48227U 21031T   26084.38122541  .00000170  00000+0  42328-3 0  9995
2 48227  87.8966 306.4219 0001746  92.6545 267.4785 13.14504253237215
ONEWEB-0182             
1 48228U 21031U   26084.37647917  .00000231  00000+0  58938-3 0  9996
2 48228  87.8956 306.4344 0001439  82.6301 277.4992 13.14503355237428
ONEWEB-0186             
1 48229U 21031V   26084.61592604  .00000097  00000+0  22597-3 0  9998
2 48229  87.8959 306.3743 0001686  80.7786 279.3534 13.14503955237401
ONEWEB-0181             
1 48230U 21031W   26084.36537899  .00000176  00000+0  44004-3 0  9992
2 48230  87.8945 306.4640 0001825  79.5420 280.5915 13.14503304237226
ONEWEB-0188             
1 48231U 21031X   26084.32731417 -.00000179  00000+0 -51697-3 0  9992
2 48231  87.8948 306.4698 0001640  82.8475 277.2841 13.14504050237124
