[{"OBJECT_NAME":"ONEWEB-0198","OBJECT_ID":"2021-031G","EPOCH":"2026-03-25T13:45:28.972800","MEAN_MOTION":13.14503141,"ECCENTRICITY":0.00020254,"INCLINATION":87.8949,"RA_OF_ASC_NODE":306.4073,"ARG_OF_PERICENTER":75.9663,"MEAN_ANOMALY":284.1692,"EPHEMERIS_TYPE":0,"CLASSIFICATION_TYPE":"U","NORAD_CAT_ID":48216,"ELEMENT_SET_NO":999,"REV_AT_EPOCH":23750,"BSTAR":-0.00039398786,"MEAN_MOTION_DOT":-1.33e-6,"MEAN_MOTION_DDOT":0},{"OBJECT_NAME":"ONEWEB-0189","OBJECT_ID":"2021-031H","EPOCH":"2026-03-25T08:34:44.474016","MEAN_MOTION":13.14504555,"ECCENTRICITY":0.00019922,"INCLINATION":87.896,"RA_OF_ASC_NODE":306.4279,"ARG_OF_PERICENTER":78.4961,"MEAN_ANOMALY":281.6392,"EPHEMERIS_TYPE":0,"CLASSIFICATION_TYPE":"U","NORAD_CAT_ID":48217,"ELEMENT_SET_NO":999,"REV_AT_EPOCH":23721,"BSTAR":0.00022745633,"MEAN_MOTION_DOT":9.7e-7,"MEAN_MOTION_DDOT":0},{"OBJECT_NAME":"ONEWEB-0196","OBJECT_ID":"2021-031J","EPOCH":"2026-03-25T08:02:44.302272","MEAN_MOTION":13.14504043,"ECCENTRICITY":0.00017657,"INCLINATION":87.8959,"RA_OF_ASC_NODE":306.443,"ARG_OF_PERICENTER":80.0243,"MEAN_ANOMALY":280.1086,"EPHEMERIS_TYPE":0,"CLASSIFICATION_TYPE":"U","NORAD_CAT_ID":48218,"ELEMENT_SET_NO":999,"REV_AT_EPOCH":23721,"BSTAR":-0.00060463439,"MEAN_MOTION_DOT":-2.11e-6,"MEAN_MOTION_DDOT":0},{"OBJECT_NAME":"ONEWEB-0183","OBJECT_ID":"2021-031K","EPOCH":"2026-03-25T14:44:39.388128","MEAN_MOTION":13.1450339,"ECCENTRICITY":0.0001474,"INCLINATION":87.8956,"RA_OF_ASC_NODE":306.3873,"ARG_OF_PERICENTER":82.0629,"MEAN_ANOMALY":278.0668,"EPHEMERIS_TYPE":0,"CLASSIFICATION_TYPE":"U","NORAD_CAT_ID":48219,"ELEMENT_SET_NO":999,"REV_AT_EPOCH":23734,"BSTAR":0.00034916703,"MEAN_MOTION_DOT":1.42e-6,"MEAN_MOTION_DDOT":0},{"OBJECT_NAME":"ONEWEB-0185","OBJECT_ID":"2021-031L","EPOCH":"2026-03-25T13:32:43.402272","MEAN_MOTION":13.14503426,"ECCENTRICITY":0.00015663,"INCLINATION":87.8965,"RA_OF_ASC_NODE":306.3831,"ARG_OF_PERICENTER":70.9569,"MEAN_ANOMALY":289.1731,"EPHEMERIS_TYPE":0,"CLASSIFICATION_TYPE":"U","NORAD_CAT_ID":48220,"ELEMENT_SET_NO":999,"REV_AT_EPOCH":23726,"BSTAR":-0.00056240405,"MEAN_MOTION_DOT":-1.96e-6,"MEAN_MOTION_DDOT":0},{"OBJECT_NAME":"ONEWEB-0187","OBJECT_ID":"2021-031M","EPOCH":"2026-03-25T07:35:09.096000","MEAN_MOTION":13.1450326,"ECCENTRICITY":0.00017468,"INCLINATION":87.8945,"RA_OF_ASC_NODE":306.4631,"ARG_OF_PERICENTER":75.043,"MEAN_ANOMALY":285.0893,"EPHEMERIS_TYPE":0,"CLASSIFICATION_TYPE":"U","NORAD_CAT_ID":48221,"ELEMENT_SET_NO":999,"REV_AT_EPOCH":23724,"BSTAR":-4.3015791e-5,"MEAN_MOTION_DOT":-3.0e-8,"MEAN_MOTION_DDOT":0},{"OBJECT_NAME":"ONEWEB-0192","OBJECT_ID":"2021-031N","EPOCH":"2026-03-25T14:10:23.965824","MEAN_MOTION":13.14503996,"ECCENTRICITY":0.00018048,"INCLINATION":87.8943,"RA_OF_ASC_NODE":306.3973,"ARG_OF_PERICENTER":84.3707,"MEAN_ANOMALY":275.7629,"EPHEMERIS_TYPE":0,"CLASSIFICATION_TYPE":"U","NORAD_CAT_ID":48222,"ELEMENT_SET_NO":999,"REV_AT_EPOCH":23719,"BSTAR":0.00037139797,"MEAN_MOTION_DOT":1.5e-6,"MEAN_MOTION_DDOT":0},{"OBJECT_NAME":"ONEWEB-0219","OBJECT_ID":"2021-031P","EPOCH":"2026-03-25T02:43:02.501760","MEAN_MOTION":13.14504664,"ECCENTRICITY":0.00016429,"INCLINATION":87.8953,"RA_OF_ASC_NODE":306.4791,"ARG_OF_PERICENTER":75.7428,"MEAN_ANOMALY":284.3884,"EPHEMERIS_TYPE":0,"CLASSIFICATION_TYPE":"U","NORAD_CAT_ID":48223,"ELEMENT_SET_NO":999,"REV_AT_EPOCH":23733,"BSTAR":-0.00032108543,"MEAN_MOTION_DOT":-1.06e-6,"MEAN_MOTION_DDOT":0},{"OBJECT_NAME":"ONEWEB-0202","OBJECT_ID":"2021-031Q","EPOCH":"2026-03-25T04:05:15.945216","MEAN_MOTION":13.14502147,"ECCENTRICITY":0.00023936,"INCLINATION":87.8961,"RA_OF_ASC_NODE":306.4766,"ARG_OF_PERICENTER":81.6127,"MEAN_ANOMALY":278.5274,"EPHEMERIS_TYPE":0,"CLASSIFICATION_TYPE":"U","NORAD_CAT_ID":48224,"ELEMENT_SET_NO":999,"REV_AT_EPOCH":23732,"BSTAR":-0.0002315046,"MEAN_MOTION_DOT":-7.3e-7,"MEAN_MOTION_DDOT":0},{"OBJECT_NAME":"ONEWEB-0204","OBJECT_ID":"2021-031R","EPOCH":"2026-03-25T08:33:33.617376","MEAN_MOTION":13.145029,"ECCENTRICITY":0.00013882,"INCLINATION":87.8961,"RA_OF_ASC_NODE":306.4336,"ARG_OF_PERICENTER":81.1019,"MEAN_ANOMALY":279.0268,"EPHEMERIS_TYPE":0,"CLASSIFICATION_TYPE":"U","NORAD_CAT_ID":48225,"ELEMENT_SET_NO":999,"REV_AT_EPOCH":23724,"BSTAR":-0.00059415947,"MEAN_MOTION_DOT":-2.07e-6,"MEAN_MOTION_DDOT":0},{"OBJECT_NAME":"ONEWEB-0205","OBJECT_ID":"2021-031S","EPOCH":"2026-03-25T07:58:10.394400","MEAN_MOTION":13.14504117,"ECCENTRICITY":0.00016627,"INCLINATION":87.8956,"RA_OF_ASC_NODE":306.4305,"ARG_OF_PERICENTER":77.8896,"MEAN_ANOMALY":282.242,"EPHEMERIS_TYPE":0,"CLASSIFICATION_TYPE":"U","NORAD_CAT_ID":48226,"ELEMENT_SET_NO":999,"REV_AT_EPOCH":23725,"BSTAR":-0.00074034247,"MEAN_MOTION_DOT":-2.62e-6,"MEAN_MOTION_DDOT":0},{"OBJECT_NAME":"ONEWEB-0206","OBJECT_ID":"2021-031T","EPOCH":"2026-03-25T09:08:57.875424","MEAN_MOTION":13.14504253,"ECCENTRICITY":0.00017461,"INCLINATION":87.8966,"RA_OF_ASC_NODE":306.4219,"ARG_OF_PERICENTER":92.6545,"MEAN_ANOMALY":267.4785,"EPHEMERIS_TYPE":0,"CLASSIFICATION_TYPE":"U","NORAD_CAT_ID":48227,"ELEMENT_SET_NO":999,"REV_AT_EPOCH":23721,"BSTAR":0.00042327714,"MEAN_MOTION_DOT":1.7e-6,"MEAN_MOTION_DDOT":0},{"OBJECT_NAME":"ONEWEB-0182","OBJECT_ID":"2021-031U","EPOCH":"2026-03-25T09:02:07.800288","MEAN_MOTION":13.14503355,"ECCENTRICITY":0.0001439,"INCLINATION":87.8956,"RA_OF_ASC_NODE":306.4344,"ARG_OF_PERICENTER":82.6301,"MEAN_ANOMALY":277.4992,"EPHEMERIS_TYPE":0,"CLASSIFICATION_TYPE":"U","NORAD_CAT_ID":48228,"ELEMENT_SET_NO":999,"REV_AT_EPOCH":23742,"BSTAR":0.00058938038,"MEAN_MOTION_DOT":2.31e-6,"MEAN_MOTION_DDOT":0},{"OBJECT_NAME":"ONEWEB-0186","OBJECT_ID":"2021-031V","EPOCH":"2026-03-25T14:46:56.009856","MEAN_MOTION":13.14503955,"ECCENTRICITY":0.00016862,"INCLINATION":87.8959,"RA_OF_ASC_NODE":306.3743,"ARG_OF_PERICENTER":80.7786,"MEAN_ANOMALY":279.3534,"EPHEMERIS_TYPE":0,"CLASSIFICATION_TYPE":"U","NORAD_CAT_ID":48229,"ELEMENT_SET_NO":999,"REV_AT_EPOCH":23740,"BSTAR":0.00022597219,"MEAN_MOTION_DOT":9.7e-7,"MEAN_MOTION_DDOT":0},{"OBJECT_NAME":"ONEWEB-0181","OBJECT_ID":"2021-031W","EPOCH":"2026-03-25T08:46:08.744736","MEAN_MOTION":13.14503304,"ECCENTRICITY":0.00018255,"INCLINATION":87.8945,"RA_OF_ASC_NODE":306.464,"ARG_OF_PERICENTER":79.542,"MEAN_ANOMALY":280.5915,"EPHEMERIS_TYPE":0,"CLASSIFICATION_TYPE":"U","NORAD_CAT_ID":48230,"ELEMENT_SET_NO":999,"REV_AT_EPOCH":23722,"BSTAR":0.00044004015,"MEAN_MOTION_DOT":1.76e-6,"MEAN_MOTION_DDOT":0},{"OBJECT_NAME":"ONEWEB-0188","OBJECT_ID":"2021-031X","EPOCH":"2026-03-25T07:51:19.944288","MEAN_MOTION":13.1450405,"ECCENTRICITY":0.00016407,"INCLINATION":87.8948,"RA_OF_ASC_NODE":306.4698,"ARG_OF_PERICENTER":82.8475,"MEAN_ANOMALY":277.2841,"EPHEMERIS_TYPE":0,"CLASSIFICATION_TYPE":"U","NORAD_CAT_ID":48231,"ELEMENT_SET_NO":999,"REV_AT_EPOCH":23712,"BSTAR":-0.0005169714,"MEAN_MOTION_DOT":-1.79e-6,"MEAN_MOTION_DDOT":0}]
